{"type": "FeatureCollection", "features": [ {"type": "Feature", "properties": {"norad_id": 33867, "name": "IRIDIUM 33 DEB", "group": "iridium-33-debris", "lat": 4.802535870402696, "lon": -4.22841342341852, "alt_km": 412.24896683142106, "timestamp": "2025-12-02T07:10:09.500757+00:00", "meta": {"OBJECT_NAME": "IRIDIUM 33 DEB", "OBJECT_ID": "1997-051AL", "EPOCH": "2025-12-01T12:35:00.924000", "MEAN_MOTION": 15.52112604, "ECCENTRICITY": 0.00117875, "INCLINATION": 86.3632, "RA_OF_ASC_NODE": 355.8583, "ARG_OF_PERICENTER": 103.3545, "MEAN_ANOMALY": 256.903, "EPHEMERIS_TYPE": 0, "CLASSIFICATION_TYPE": "U", "NORAD_CAT_ID": 33867, "ELEMENT_SET_NO": 999, "REV_AT_EPOCH": 89336, "BSTAR": 0.0059603838, "MEAN_MOTION_DOT": 0.00377274, "MEAN_MOTION_DDOT": 0}, "tle": {"line1": "1 33867U 97051AL  25335.52431625  .00377274  00000+0  59604-2 0  9990", "line2": "2 33867  86.3632 355.8583 0011787 103.3545 256.9030 15.52112604893360"}}, "geometry": {"type": "Point", "coordinates": [-4.22841342341852, 4.802535870402696]}}, {"type": "Feature", "properties": {"norad_id": 33870, "name": "IRIDIUM 33 DEB", "group": "iridium-33-debris", "lat": 16.433200359579264, "lon": 63.806348688901124, "alt_km": 754.1396112856492, "timestamp": "2025-12-02T07:10:09.500768+00:00", "meta": {"OBJECT_NAME": "IRIDIUM 33 DEB", "OBJECT_ID": "1997-051AP", "EPOCH": "2025-12-01T18:22:45.914016", "MEAN_MOTION": 14.45746903, "ECCENTRICITY": 0.0020333, "INCLINATION": 86.3755, "RA_OF_ASC_NODE": 62.9634, "ARG_OF_PERICENTER": 214.8922, "MEAN_ANOMALY": 269.7479, "EPHEMERIS_TYPE": 0, "CLASSIFICATION_TYPE": "U", "NORAD_CAT_ID": 33870, "ELEMENT_SET_NO": 999, "REV_AT_EPOCH": 87978, "BSTAR": 0.00087817, "MEAN_MOTION_DOT": 3.137e-05, "MEAN_MOTION_DDOT": 0}, "tle": {"line1": "1 33870U 97051AP  25335.76580919  .00003137  00000+0  87817-3 0  9993", "line2": "2 33870  86.3755  62.9634 0020333 214.8922 269.7479 14.45746903879782"}}, "geometry": {"type": "Point", "coordinates": [63.806348688901124, 16.433200359579264]}}, {"type": "Feature", "properties": {"norad_id": 33881, "name": "IRIDIUM 33 DEB", "group": "iridium-33-debris", "lat": -26.3414134712251, "lon": -66.92981225573028, "alt_km": 667.848915821115, "timestamp": "2025-12-02T07:10:09.500778+00:00", "meta": {"OBJECT_NAME": "IRIDIUM 33 DEB", "OBJECT_ID": "1997-051BA", "EPOCH": "2025-12-01T19:20:33.045792", "MEAN_MOTION": 14.56252651, "ECCENTRICITY": 0.0061043, "INCLINATION": 86.3869, "RA_OF_ASC_NODE": 111.4914, "ARG_OF_PERICENTER": 210.0929, "MEAN_ANOMALY": 294.4565, "EPHEMERIS_TYPE": 0, "CLASSIFICATION_TYPE": "U", "NORAD_CAT_ID": 33881, "ELEMENT_SET_NO": 999, "REV_AT_EPOCH": 87341, "BSTAR": 0.0018925, "MEAN_MOTION_DOT": 8.609e-05, "MEAN_MOTION_DDOT": 0}, "tle": {"line1": "1 33881U 97051BA  25335.80593803  .00008609  00000+0  18925-2 0  9998", "line2": "2 33881  86.3869 111.4914 0061043 210.0929 294.4565 14.56252651873418"}}, "geometry": {"type": "Point", "coordinates": [-66.92981225573028, -26.3414134712251]}}, {"type": "Feature", "properties": {"norad_id": 33884, "name": "IRIDIUM 33 DEB", "group": "iridium-33-debris", "lat": 86.32509551558105, "lon": 113.28256993252971, "alt_km": 630.8089668189868, "timestamp": "2025-12-02T07:10:09.500789+00:00", "meta": {"OBJECT_NAME": "IRIDIUM 33 DEB", "OBJECT_ID": "1997-051BD", "EPOCH": "2025-12-01T11:28:58.158624", "MEAN_MOTION": 14.77093089, "ECCENTRICITY": 0.0010918, "INCLINATION": 86.3702, "RA_OF_ASC_NODE": 14.9006, "ARG_OF_PERICENTER": 4.651, "MEAN_ANOMALY": 46.8048, "EPHEMERIS_TYPE": 0, "CLASSIFICATION_TYPE": "U", "NORAD_CAT_ID": 33884, "ELEMENT_SET_NO": 999, "REV_AT_EPOCH": 88681, "BSTAR": 0.0016171827, "MEAN_MOTION_DOT": 0.00011462, "MEAN_MOTION_DDOT": 0}, "tle": {"line1": "1 33884U 97051BD  25335.47845091  .00011462  00000+0  16172-2 0  9996", "line2": "2 33884  86.3702  14.9006 0010918   4.6510  46.8048 14.77093089886818"}}, "geometry": {"type": "Point", "coordinates": [113.28256993252971, 86.32509551558105]}}, {"type": "Feature", "properties": {"norad_id": 33886, "name": "IRIDIUM 33 DEB", "group": "iridium-33-debris", "lat": 56.22143747343424, "lon": -113.80282067096856, "alt_km": 774.3633347183804, "timestamp": "2025-12-02T07:10:09.500799+00:00", "meta": {"OBJECT_NAME": "IRIDIUM 33 DEB", "OBJECT_ID": "1997-051BF", "EPOCH": "2025-12-01T19:27:55.995264", "MEAN_MOTION": 14.36029094, "ECCENTRICITY": 0.0012043, "INCLINATION": 86.3833, "RA_OF_ASC_NODE": 71.8281, "ARG_OF_PERICENTER": 283.5471, "MEAN_ANOMALY": 200.6063, "EPHEMERIS_TYPE": 0, "CLASSIFICATION_TYPE": "U", "NORAD_CAT_ID": 33886, "ELEMENT_SET_NO": 999, "REV_AT_EPOCH": 87895, "BSTAR": 0.00022861, "MEAN_MOTION_DOT": 6.84e-06, "MEAN_MOTION_DDOT": 0}, "tle": {"line1": "1 33886U 97051BF  25335.81106476  .00000684  00000+0  22861-3 0  9990", "line2": "2 33886  86.3833  71.8281 0012043 283.5471 200.6063 14.36029094878950"}}, "geometry": {"type": "Point", "coordinates": [-113.80282067096856, 56.22143747343424]}}, {"type": "Feature", "properties": {"norad_id": 33887, "name": "IRIDIUM 33 DEB", "group": "iridium-33-debris", "lat": 15.741368302893328, "lon": 8.935127558291969, "alt_km": 768.9576397446763, "timestamp": "2025-12-02T07:10:09.500811+00:00", "meta": {"OBJECT_NAME": "IRIDIUM 33 DEB", "OBJECT_ID": "1997-051BG", "EPOCH": "2025-12-01T20:13:12.544320", "MEAN_MOTION": 14.37204978, "ECCENTRICITY": 0.0004044, "INCLINATION": 86.3053, "RA_OF_ASC_NODE": 8.088, "ARG_OF_PERICENTER": 279.1421, "MEAN_ANOMALY": 257.7662, "EPHEMERIS_TYPE": 0, "CLASSIFICATION_TYPE": "U", "NORAD_CAT_ID": 33887, "ELEMENT_SET_NO": 999, "REV_AT_EPOCH": 88008, "BSTAR": 0.0001583, "MEAN_MOTION_DOT": 4.91e-06, "MEAN_MOTION_DDOT": 0}, "tle": {"line1": "1 33887U 97051BG  25335.84250630  .00000491  00000+0  15830-3 0  9990", "line2": "2 33887  86.3053   8.0880 0004044 279.1421 257.7662 14.37204978880082"}}, "geometry": {"type": "Point", "coordinates": [8.935127558291969, 15.741368302893328]}}, {"type": "Feature", "properties": {"norad_id": 33953, "name": "IRIDIUM 33 DEB", "group": "iridium-33-debris", "lat": -83.86544138219513, "lon": 22.282929954469957, "alt_km": 726.4148722061072, "timestamp": "2025-12-02T07:10:09.500822+00:00", "meta": {"OBJECT_NAME": "IRIDIUM 33 DEB", "OBJECT_ID": "1997-051BN", "EPOCH": "2025-12-01T11:49:34.999680", "MEAN_MOTION": 14.55133088, "ECCENTRICITY": 0.00184148, "INCLINATION": 86.3852, "RA_OF_ASC_NODE": 58.6594, "ARG_OF_PERICENTER": 137.1795, "MEAN_ANOMALY": 238.3819, "EPHEMERIS_TYPE": 0, "CLASSIFICATION_TYPE": "U", "NORAD_CAT_ID": 33953, "ELEMENT_SET_NO": 999, "REV_AT_EPOCH": 88140, "BSTAR": 0.0015798545, "MEAN_MOTION_DOT": 6.858e-05, "MEAN_MOTION_DDOT": 0}, "tle": {"line1": "1 33953U 97051BN  25335.49276620  .00006858  00000+0  15799-2 0  9998", "line2": "2 33953  86.3852  58.6594 0018414 137.1795 238.3819 14.55133088881408"}}, "geometry": {"type": "Point", "coordinates": [22.282929954469957, -83.86544138219513]}}, {"type": "Feature", "properties": {"norad_id": 33960, "name": "IRIDIUM 33 DEB", "group": "iridium-33-debris", "lat": 51.013244903216616, "lon": -60.92158371509076, "alt_km": 606.8110891263032, "timestamp": "2025-12-02T07:10:09.500833+00:00", "meta": {"OBJECT_NAME": "IRIDIUM 33 DEB", "OBJECT_ID": "1997-051BV", "EPOCH": "2025-12-01T15:33:28.362816", "MEAN_MOTION": 14.84254066, "ECCENTRICITY": 0.00069003, "INCLINATION": 86.2525, "RA_OF_ASC_NODE": 294.7399, "ARG_OF_PERICENTER": 77.5875, "MEAN_ANOMALY": 100.2363, "EPHEMERIS_TYPE": 0, "CLASSIFICATION_TYPE": "U", "NORAD_CAT_ID": 33960, "ELEMENT_SET_NO": 999, "REV_AT_EPOCH": 88702, "BSTAR": 0.0032348033, "MEAN_MOTION_DOT": 0.00027199, "MEAN_MOTION_DDOT": 0}, "tle": {"line1": "1 33960U 97051BV  25335.64824494  .00027199  00000+0  32348-2 0  9991", "line2": "2 33960  86.2525 294.7399 0006900  77.5875 100.2363 14.84254066887028"}}, "geometry": {"type": "Point", "coordinates": [-60.92158371509076, 51.013244903216616]}}, {"type": "Feature", "properties": {"norad_id": 33966, "name": "IRIDIUM 33 DEB", "group": "iridium-33-debris", "lat": -73.73797026859144, "lon": -117.00580367590894, "alt_km": 730.6869356713578, "timestamp": "2025-12-02T07:10:09.500843+00:00", "meta": {"OBJECT_NAME": "IRIDIUM 33 DEB", "OBJECT_ID": "1997-051CB", "EPOCH": "2025-12-01T15:37:57.426240", "MEAN_MOTION": 14.49515287, "ECCENTRICITY": 0.00062353, "INCLINATION": 86.3934, "RA_OF_ASC_NODE": 50.7847, "ARG_OF_PERICENTER": 229.0544, "MEAN_ANOMALY": 249.0715, "EPHEMERIS_TYPE": 0, "CLASSIFICATION_TYPE": "U", "NORAD_CAT_ID": 33966, "ELEMENT_SET_NO": 999, "REV_AT_EPOCH": 88281, "BSTAR": 0.0006195358, "MEAN_MOTION_DOT": 2.394e-05, "MEAN_MOTION_DDOT": 0}, "tle": {"line1": "1 33966U 97051CB  25335.65135910  .00002394  00000+0  61954-3 0  9992", "line2": "2 33966  86.3934  50.7847 0006235 229.0544 249.0715 14.49515287882816"}}, "geometry": {"type": "Point", "coordinates": [-117.00580367590894, -73.73797026859144]}}, {"type": "Feature", "properties": {"norad_id": 34071, "name": "IRIDIUM 33 DEB", "group": "iridium-33-debris", "lat": -34.682184391851145, "lon": 19.83261344638486, "alt_km": 740.550885214835, "timestamp": "2025-12-02T07:10:09.500854+00:00", "meta": {"OBJECT_NAME": "IRIDIUM 33 DEB", "OBJECT_ID": "1997-051CE", "EPOCH": "2025-12-01T14:45:36.923616", "MEAN_MOTION": 14.49382565, "ECCENTRICITY": 0.00093777, "INCLINATION": 86.347, "RA_OF_ASC_NODE": 22.6632, "ARG_OF_PERICENTER": 137.8371, "MEAN_ANOMALY": 222.3556, "EPHEMERIS_TYPE": 0, "CLASSIFICATION_TYPE": "U", "NORAD_CAT_ID": 34071, "ELEMENT_SET_NO": 999, "REV_AT_EPOCH": 88173, "BSTAR": 0.00062691272, "MEAN_MOTION_DOT": 2.416e-05, "MEAN_MOTION_DDOT": 0}, "tle": {"line1": "1 34071U 97051CE  25335.61501069  .00002416  00000+0  62691-3 0  9992", "line2": "2 34071  86.3470  22.6632 0009377 137.8371 222.3556 14.49382565881731"}}, "geometry": {"type": "Point", "coordinates": [19.83261344638486, -34.682184391851145]}}]}